#dP2021 12  9  0  0  0.00000000     288   u+U IGb14 FIT  GFZ                    
## 2187 345600.00000000   300.00000000 59557 0.0000000000000                    
+  124   C01C02C03C04C05C06C07C08C09C10C11C12C13C14C16C19C20                    
+        C21C22C23C24C25C26C27C28C29C30C32C33C34C35C36C37C38                    
+        C39C40C41C42C43C44C45C46C60E01E02E03E04E05E07E08E09                    
+        E11E12E13E14E15E18E19E21E24E25E26E27E30E31E33E36G01                    
+        G02G03G04G05G06G07G08G09G10G11G12G13G14G15G16G17G18                    
+        G19G20G21G22G23G24G25G26G27G28G29G30G31G32J01J02J03                    
+        J07R01R02R03R04R05R07R08R09R11R12R13R14R15R16R17R18                    
+        R19R20R21R22R24 00 00 00 00 00 00 00 00 00 00 00 00                    
++        10 10 10 10 10  8 10 10 10 10 10 10  7  9 10  6  6                    
++         8  6  7  6  5  7  5  6  5  7  6  6  7  7  6  7 10                    
++        10 10  8  5  8  8  7  7 10  5  6  5  6  5  5  5  6                    
++         5  5  6  6  5  5  5  5  6  5  5  6  7  6  6  6  6                    
++         7  5  5  8  6  8  5  5  6  9  5  6  7  7  5  6  5                    
++         6  5  5  8  5  5  5  5  6  6  7  6  5  5  8 10  9                    
++        10  8  7  5  5  7  7  5  5  6  7 10  8  7 10  7  5                    
++         6  6  6  6  6  0  0  0  0  0  0  0  0  0  0  0  0                    
%c M  cc GPS ccc cccc cccc cccc cccc ccccc ccccc ccccc ccccc                    
%c cc cc ccc ccc cccc cccc cccc cccc ccccc ccccc ccccc ccccc                    
%f  1.2500000  1.025000000  0.00000000000  0.000000000000000                    
%f  0.0000000  0.000000000  0.00000000000  0.000000000000000                    
%i    0    0    0    0      0      0      0      0         0                    
%i    0    0    0    0      0      0      0      0         0                    
/* PCV:IGS14_2178 OL/AL:FES2004  NONE     YN CLK:CoN ORB:CoN                    
/*     GeoForschungsZentrum Potsdam                                             
/*                                                                              
/*                                                                              
*  2021 12  9 16  5  0.00000000                                                 
PC01 -34311.447081  24520.742902    237.357204   -362.615961                    
PC02   4320.895704  41904.190542   -716.389868    822.343254                    
PC03 -14793.438596  39448.076248    102.972467    331.455287                    
PC04 -39611.872579  14431.022677    595.587681    338.673967                    
PC05  21865.930533  36015.197428  -1131.102804    328.152174                    
PC06   -842.728061  28162.854211 -31341.878613    610.105836                    
PC07 -16853.936458  30707.419793  23407.382520    141.920765                    
PC08  -7614.845797  41232.284823   5186.080336    -36.951195                    
PC09   5092.697252  30700.214861 -27921.665366   -334.409137                    
PC10  -7700.149806  30410.270748  28244.644367    136.821846                    
PC11   6539.592634  20654.048878  17683.468192   -343.624153                    
PC12 -10972.818886  10838.221315  23299.225373   -425.202965                    
PC13  -4180.292975  42108.325033    739.065098   -183.284480                    
PC14  -3500.069942  17418.756615 -21492.411528    503.218158                    
PC16  -6230.303986  24720.025235 -33420.056958     18.053542                    
PC19  -7409.201457 -14062.205680  22954.436151    924.836890                    
PC20  12098.849757 -17914.438960  17666.254706   -793.595153                    
PC21 -25516.797182  11187.626128  -1441.590740   -945.301102                    
PC22 -23363.638616  -1948.692975  15116.159492   -967.853473                    
PC23  14727.999256   8542.970547  22113.190858   -963.065808                    
PC24  -8128.805920  26115.273084  -5637.869344   -953.088087                    
PC25   5876.528728  24263.201983  12488.784951   -812.523403                    
PC26 -15374.863771  13710.181640 -18854.118179    810.274728                    
PC27  18410.761099  -3408.778392 -20702.764779    642.496402                    
PC28  23696.629292  12629.477046  -7603.629877      6.911944                    
PC29 -15788.587615 -20699.437027 -10053.325210    485.341339                    
PC30   2401.009081 -17193.770713 -21853.718751    488.344331                    
PC32  25452.394177 -11360.626334   1395.163820   -957.510989                    
PC33   7413.086472  14077.561640 -22928.018402   -962.395760                    
PC34  -1567.878994  17658.965746  21540.793903   -518.539080                    
PC35 -24107.239689 -12185.940255   7070.161751     38.332420                    
PC36  -5007.281208 -24621.094756 -12110.729071   -827.094514                    
PC37  15903.504299 -12201.697069  19416.508433   -908.691303                    
PC38 -12853.582370  37737.020092  14021.215935    195.396166                    
PC39 -10198.671547  22113.246583 -34430.158433     34.290494                    
PC40 -25107.497909  25231.902586  22499.224953    225.042873                    
PC41  23171.695731   2155.800587 -15349.748390   -915.842513                    
PC42 -12974.462679  17877.857984 -17010.902109   -934.858767                    
PC43  15180.223591  20887.854897  10554.433225   -955.511746                    
PC44 -18526.175803   3912.212168  20504.255980    492.658165                    
PC45 -14694.531557  -8236.756648 -22243.011947    622.457769                    
PC46   7280.790676 -26546.619632   4437.088135    -51.607591                    
PC60   7303.608046  41508.908099   1377.025755     -0.356317                    
PE01  -5706.031786  24650.883894  15375.746985   -534.411324                    
PE02   5558.142295 -24588.468488 -15493.056787    265.743895                    
PE03  -3277.410699 -17332.349366  23759.412385   -504.571810                    
PE04  22797.795673  12741.565854 -13930.856865   -917.151837                    
PE05  18527.251151 -11830.359952  19816.546216   -227.744171                    
PE07 -29266.569300   -486.683061  -4391.349208   -615.786915                    
PE08 -23159.146306 -12368.317860  13655.198157   5891.660644                    
PE09  29244.558852    260.204154   4599.582439   5435.756427                    
PE11  17942.108635   3274.732072 -23314.133338   4926.036966                    
PE12  16654.607154  22360.235818  -9921.038034   4869.311970                    
PE13 -18029.373554  -3922.374564  23154.237910    424.522147                    
PE14  27660.088449  -4169.282615 -15706.718697  -1668.730394                    
PE15 -16669.274283 -22385.288455   9867.040002    776.264978                    
PE18 -22576.763365   -985.928114   8226.837675  -1835.294514                    
PE19    398.821110  17072.156875 -24180.245372    447.953499                    
PE21 -18719.991497  22878.695469  -1635.222132   -704.298530                    
PE24  21491.090710  -6554.949159  19245.131107  -1270.621135                    
PE25  18833.722408 -22749.530041   1884.544572   -556.299553                    
PE26  -8291.085279  17705.419593  22236.815677   -550.161380                    
PE27 -21694.984289   7823.839482 -18559.202827   -183.050148                    
PE30 -10999.717458 -12833.882809 -24303.215857    -96.050133                    
PE31  11877.442435  11742.160300  24448.451680   -489.128690                    
PE33   5472.131549  27595.149719   9214.511192   -461.620858                    
PE36   8784.286103 -16751.283002 -22759.995413   -301.478995                    
PG01 -14376.939035   2313.079413  21945.849605    488.615523                    
PG02  14556.593319  18695.181946 -11239.749150 999999.999999                    
PG03 -21601.107233  10537.444547  11089.820101    -36.360506                    
PG04 -23840.931775   1057.031000 -11739.582706   -199.586446                    
PG05  16754.832372   3262.936815 -20549.318364    -63.829142                    
PG06   5309.851514  25931.944114   1799.029848    138.355594                    
PG07  -7749.996806  18485.765868 -16800.125142    288.777362                    
PG08 -26018.014145  -6127.199356    848.171577    -47.410505                    
PG09 -15394.005483  10099.596930 -19228.697071   -360.729885                    
PG10   7730.906336 -21081.674690  14078.532541   -264.756631                    
PG11  12011.054195  20926.985938 -11127.093150     14.287242                    
PG12  22017.533016  -7546.292789  12412.283895   -138.281624                    
PG13  22431.571408  13490.149838  -5124.856772    226.906286                    
PG14  -8867.776977  20968.949881  13627.660759    -52.395566                    
PG15  26494.442266   3407.124611    796.337442   -100.422109                    
PG16 -14199.895195  -7388.835733 -21521.414122   -437.642454                    
PG17  -1323.642900  15251.139680  22143.838491    545.105301                    
PG18   7180.096542 -19363.936152 -16647.672182    282.385717                    
PG19   8290.080187  16791.575262  18643.028683     89.979492                    
PG20   9349.948132  13180.092393 -21126.212093    517.725803                    
PG21 -17148.586445  -7030.218641  19914.589062    153.288000                    
PG22 -19649.915006   3532.825369  17585.872147   -445.424574                    
PG23  16433.424274 -20496.190202   3553.556527     23.741235                    
PG24  16602.023923   1985.607241  20429.267246    273.690418                    
PG25  20003.736678 -16960.918349   2825.775576    253.174976                    
PG26  -3244.319162 -17594.466798 -19606.645070    163.354969                    
PG27 -21811.115256 -12586.754868  -9214.662693   -228.993780                    
PG28  -2226.352001  18780.781595  19272.863550    446.548093                    
PG29  19247.461675  -5482.341842 -17533.978700   -451.693471                    
PG30   -963.685856  24832.696036  -8961.013869   -497.978560                    
PG31  -6532.932794 -25462.886089   -926.694516   -154.208986                    
PG32  -3904.291237 -16241.404364  20807.426857    -32.784615                    
PJ01 -35745.925465  15304.016103 -11654.842079    103.733340                    
PJ02 -26688.583742  31959.040049  -1854.274337     -0.296443                    
PJ03 -25530.180943  22977.227464  29592.903157     -8.684306                    
PJ07 -25408.415337  33655.920375    -19.465170      0.002985                    
PR01  23042.969112  -8431.927267   6980.218149     89.246323                    
PR02   6871.789716 -11659.641411  21641.370994    502.746113                    
PR03 -12082.281352  -7867.448711  21094.531970     47.856831                    
PR04 -23938.974146    327.276968   8844.218397    118.038674                    
PR05 -22681.149241   8212.936990  -8334.383545     83.890953                    
PR07  12655.671431   7601.509659 -20756.052939    -39.357047                    
PR08  23957.855714   -421.337857  -8655.411686    -62.455861                    
PR09  -6174.067500  24472.800609   3449.060403     27.855710                    
PR11  11141.953136    794.613355  22942.135139     49.178835                    
PR12  12799.489453 -17178.886133  13852.058106    285.125107                    
PR13   6777.068817 -24469.067932  -2437.652527    -64.609946                    
PR14  -3580.950127 -17276.356654 -18415.917825     71.890287                    
PR15 -11443.758171   -227.436168 -22777.475057     99.709671                    
PR16 -12240.796075  18530.488083 -12696.628009    -26.498389                    
PR17 -15383.722771 -20075.753582  -3123.764334    482.073059                    
PR18 -18111.331586 -12117.904574  13319.875547     99.912870                    
PR19 -11944.571780   1096.174699  22516.549384   -170.058422                    
PR20   2850.439382  16930.976995  18862.974276    -60.871590                    
PR21  15900.701335  19890.247790   1755.142272   -260.901684                    
PR22  17825.609801  11454.886456 -14139.192537   -150.367466                    
PR24  -3501.407350 -17479.009016 -18214.209791     70.460797                    
EOF                                     
